[{"OBJECT_NAME":"STARLINK-36514","OBJECT_ID":"2026-020AA","EPOCH":"2026-03-09T22:00:01.999584","MEAN_MOTION":15.6241414,"ECCENTRICITY":0.00012447,"INCLINATION":42.9994,"RA_OF_ASC_NODE":140.2417,"ARG_OF_PERICENTER":280.6067,"MEAN_ANOMALY":239.0507,"EPHEMERIS_TYPE":0,"CLASSIFICATION_TYPE":"U","NORAD_CAT_ID":67641,"ELEMENT_SET_NO":999,"REV_AT_EPOCH":604,"BSTAR":-0.024506103,"MEAN_MOTION_DOT":-0.01968149,"MEAN_MOTION_DDOT":0},{"OBJECT_NAME":"COSMOS 1174","OBJECT_ID":"1980-030A","EPOCH":"2026-03-09T17:59:04.929504","MEAN_MOTION":14.57287568,"ECCENTRICITY":0.04764693,"INCLINATION":66.08,"RA_OF_ASC_NODE":145.2035,"ARG_OF_PERICENTER":169.2768,"MEAN_ANOMALY":191.8955,"EPHEMERIS_TYPE":0,"CLASSIFICATION_TYPE":"U","NORAD_CAT_ID":11765,"ELEMENT_SET_NO":999,"REV_AT_EPOCH":36443,"BSTAR":0.00027813385,"MEAN_MOTION_DOT":6.298e-5,"MEAN_MOTION_DDOT":0}]
